STARLINK-30997          
1 58482U 23186K   26068.01059115  .00023746  00000+0  89142-3 0  9999
2 58482  42.9998  67.3412 0000499 244.0827 115.9973 15.26763988125796
NUSAT-48 (HENRIETTA LE*)
1 60498U 24149AG  26068.80506098  .00012988  00000+0  45212-3 0  9999
2 60498  97.3923 150.8264 0002754 263.3026  96.7901 15.29812597 86946
